{"type": "FeatureCollection", "features": [ {"type": "Feature", "properties": {"norad_id": 40115, "name": "WORLDVIEW-3 (WV-3)", "group": "resource", "lat": -60.53349733502717, "lon": 63.22329259440436, "alt_km": 618.6345727028229, "timestamp": "2025-12-02T15:49:06.839978+00:00", "meta": {"OBJECT_NAME": "WORLDVIEW-3 (WV-3)", "OBJECT_ID": "2014-048A", "EPOCH": "2025-12-02T04:46:43.029696", "MEAN_MOTION": 14.85467296, "ECCENTRICITY": 0.00040316, "INCLINATION": 97.8627, "RA_OF_ASC_NODE": 48.6117, "ARG_OF_PERICENTER": 223.2189, "MEAN_ANOMALY": 136.871, "EPHEMERIS_TYPE": 0, "CLASSIFICATION_TYPE": "U", "NORAD_CAT_ID": 40115, "ELEMENT_SET_NO": 999, "REV_AT_EPOCH": 61267, "BSTAR": 0.00017539795, "MEAN_MOTION_DOT": 1.459e-05, "MEAN_MOTION_DDOT": 0}, "tle": {"line1": "1 40115U 14048A   25336.19910914  .00001459  00000+0  17540-3 0  9999", "line2": "2 40115  97.8627  48.6117 0004031 223.2189 136.8710 14.85467296612674"}}, "geometry": {"type": "Point", "coordinates": [63.22329259440436, -60.53349733502717]}}, {"type": "Feature", "properties": {"norad_id": 40118, "name": "GAOFEN-2", "group": "resource", "lat": -65.5071911451827, "lon": 53.88462090000802, "alt_km": 639.7380898028896, "timestamp": "2025-12-02T15:49:06.839988+00:00", "meta": {"OBJECT_NAME": "GAOFEN-2", "OBJECT_ID": "2014-049A", "EPOCH": "2025-12-02T08:00:37.396224", "MEAN_MOTION": 14.80578559, "ECCENTRICITY": 0.00081494, "INCLINATION": 98.04, "RA_OF_ASC_NODE": 35.4836, "ARG_OF_PERICENTER": 142.932, "MEAN_ANOMALY": 217.2456, "EPHEMERIS_TYPE": 0, "CLASSIFICATION_TYPE": "U", "NORAD_CAT_ID": 40118, "ELEMENT_SET_NO": 999, "REV_AT_EPOCH": 61010, "BSTAR": 0.0001451753, "MEAN_MOTION_DOT": 1.06e-05, "MEAN_MOTION_DDOT": 0}, "tle": {"line1": "1 40118U 14049A   25336.33376616  .00001060  00000+0  14518-3 0  9994", "line2": "2 40118  98.0400  35.4836 0008149 142.9320 217.2456 14.80578559610106"}}, "geometry": {"type": "Point", "coordinates": [53.88462090000802, -65.5071911451827]}}, {"type": "Feature", "properties": {"norad_id": 40143, "name": "YAOGAN-21", "group": "resource", "lat": 39.78462848707831, "lon": -153.56481059051558, "alt_km": 489.6901217810764, "timestamp": "2025-12-02T15:49:06.839999+00:00", "meta": {"OBJECT_NAME": "YAOGAN-21", "OBJECT_ID": "2014-053A", "EPOCH": "2025-12-02T07:19:34.652352", "MEAN_MOTION": 15.23462779, "ECCENTRICITY": 0.00103043, "INCLINATION": 97.1779, "RA_OF_ASC_NODE": 20.0728, "ARG_OF_PERICENTER": 73.3686, "MEAN_ANOMALY": 286.8682, "EPHEMERIS_TYPE": 0, "CLASSIFICATION_TYPE": "U", "NORAD_CAT_ID": 40143, "ELEMENT_SET_NO": 999, "REV_AT_EPOCH": 62495, "BSTAR": 0.00035160606, "MEAN_MOTION_DOT": 8.329e-05, "MEAN_MOTION_DDOT": 0}, "tle": {"line1": "1 40143U 14053A   25336.30526218  .00008329  00000+0  35161-3 0  9991", "line2": "2 40143  97.1779  20.0728 0010304  73.3686 286.8682 15.23462779624956"}}, "geometry": {"type": "Point", "coordinates": [-153.56481059051558, 39.78462848707831]}}, {"type": "Feature", "properties": {"norad_id": 40275, "name": "YAOGAN-22", "group": "resource", "lat": -46.69466820653218, "lon": 131.55455241620191, "alt_km": 1205.0579694694497, "timestamp": "2025-12-02T15:49:06.840009+00:00", "meta": {"OBJECT_NAME": "YAOGAN-22", "OBJECT_ID": "2014-063A", "EPOCH": "2025-12-02T03:17:03.280128", "MEAN_MOTION": 13.15522128, "ECCENTRICITY": 0.00058667, "INCLINATION": 100.7417, "RA_OF_ASC_NODE": 119.407, "ARG_OF_PERICENTER": 273.8048, "MEAN_ANOMALY": 86.2392, "EPHEMERIS_TYPE": 0, "CLASSIFICATION_TYPE": "U", "NORAD_CAT_ID": 40275, "ELEMENT_SET_NO": 999, "REV_AT_EPOCH": 53390, "BSTAR": 0.00014974103, "MEAN_MOTION_DOT": 1e-07, "MEAN_MOTION_DDOT": 0}, "tle": {"line1": "1 40275U 14063A   25336.13684352  .00000010  00000+0  14974-3 0  9991", "line2": "2 40275 100.7417 119.4070 0005866 273.8048  86.2392 13.15522128533909"}}, "geometry": {"type": "Point", "coordinates": [131.55455241620191, -46.69466820653218]}}, {"type": "Feature", "properties": {"norad_id": 40298, "name": "ASNARO", "group": "resource", "lat": -18.886988345597775, "lon": 55.39146215715298, "alt_km": 515.7371608229087, "timestamp": "2025-12-02T15:49:06.840020+00:00", "meta": {"OBJECT_NAME": "ASNARO", "OBJECT_ID": "2014-070A", "EPOCH": "2025-12-02T06:25:16.805568", "MEAN_MOTION": 15.19802888, "ECCENTRICITY": 0.00070586, "INCLINATION": 97.3671, "RA_OF_ASC_NODE": 52.4722, "ARG_OF_PERICENTER": 131.097, "MEAN_ANOMALY": 229.0876, "EPHEMERIS_TYPE": 0, "CLASSIFICATION_TYPE": "U", "NORAD_CAT_ID": 40298, "ELEMENT_SET_NO": 999, "REV_AT_EPOCH": 61410, "BSTAR": 0.00055654391, "MEAN_MOTION_DOT": 0.00011869, "MEAN_MOTION_DDOT": 0}, "tle": {"line1": "1 40298U 14070A   25336.26755562  .00011869  00000+0  55654-3 0  9994", "line2": "2 40298  97.3671  52.4722 0007058 131.0970 229.0876 15.19802888614107"}}, "geometry": {"type": "Point", "coordinates": [55.39146215715298, -18.886988345597775]}}, {"type": "Feature", "properties": {"norad_id": 40310, "name": "YAOGAN-24", "group": "resource", "lat": 75.01712564392436, "lon": 75.4510068638551, "alt_km": 634.7018077237362, "timestamp": "2025-12-02T15:49:06.840030+00:00", "meta": {"OBJECT_NAME": "YAOGAN-24", "OBJECT_ID": "2014-072A", "EPOCH": "2025-12-02T07:20:04.373088", "MEAN_MOTION": 14.76140637, "ECCENTRICITY": 0.00141802, "INCLINATION": 98.1217, "RA_OF_ASC_NODE": 107.3439, "ARG_OF_PERICENTER": 170.4069, "MEAN_ANOMALY": 189.7414, "EPHEMERIS_TYPE": 0, "CLASSIFICATION_TYPE": "U", "NORAD_CAT_ID": 40310, "ELEMENT_SET_NO": 999, "REV_AT_EPOCH": 59467, "BSTAR": 0.0002064544, "MEAN_MOTION_DOT": 1.375e-05, "MEAN_MOTION_DDOT": 0}, "tle": {"line1": "1 40310U 14072A   25336.30560617  .00001375  00000+0  20645-3 0  9994", "line2": "2 40310  98.1217 107.3439 0014180 170.4069 189.7414 14.76140637594670"}}, "geometry": {"type": "Point", "coordinates": [75.4510068638551, 75.01712564392436]}}, {"type": "Feature", "properties": {"norad_id": 40336, "name": "CBERS 4", "group": "resource", "lat": -30.572315748259367, "lon": -149.94656181135466, "alt_km": 779.1627773369601, "timestamp": "2025-12-02T15:49:06.840040+00:00", "meta": {"OBJECT_NAME": "CBERS 4", "OBJECT_ID": "2014-079A", "EPOCH": "2025-12-02T08:08:53.841120", "MEAN_MOTION": 14.35527499, "ECCENTRICITY": 0.00014223, "INCLINATION": 98.3324, "RA_OF_ASC_NODE": 34.7115, "ARG_OF_PERICENTER": 127.9292, "MEAN_ANOMALY": 232.2023, "EPHEMERIS_TYPE": 0, "CLASSIFICATION_TYPE": "U", "NORAD_CAT_ID": 40336, "ELEMENT_SET_NO": 999, "REV_AT_EPOCH": 57571, "BSTAR": 9.1445993e-05, "MEAN_MOTION_DOT": 2.21e-06, "MEAN_MOTION_DDOT": 0}, "tle": {"line1": "1 40336U 14079A   25336.33951205  .00000221  00000+0  91446-4 0  9996", "line2": "2 40336  98.3324  34.7115 0001422 127.9292 232.2023 14.35527499575717"}}, "geometry": {"type": "Point", "coordinates": [-149.94656181135466, -30.572315748259367]}}, {"type": "Feature", "properties": {"norad_id": 40362, "name": "YAOGAN-26", "group": "resource", "lat": 14.533535289699861, "lon": -24.145439944893454, "alt_km": 447.06125862727913, "timestamp": "2025-12-02T15:49:06.840051+00:00", "meta": {"OBJECT_NAME": "YAOGAN-26", "OBJECT_ID": "2014-088A", "EPOCH": "2025-12-02T06:23:26.644704", "MEAN_MOTION": 15.38732632, "ECCENTRICITY": 0.00074169, "INCLINATION": 97.0642, "RA_OF_ASC_NODE": 337.3183, "ARG_OF_PERICENTER": 57.8258, "MEAN_ANOMALY": 302.3706, "EPHEMERIS_TYPE": 0, "CLASSIFICATION_TYPE": "U", "NORAD_CAT_ID": 40362, "ELEMENT_SET_NO": 999, "REV_AT_EPOCH": 60733, "BSTAR": 0.0005830494, "MEAN_MOTION_DOT": 0.00022297, "MEAN_MOTION_DDOT": 0}, "tle": {"line1": "1 40362U 14088A   25336.26628061  .00022297  00000+0  58305-3 0  9991", "line2": "2 40362  97.0642 337.3183 0007416  57.8258 302.3706 15.38732632607336"}}, "geometry": {"type": "Point", "coordinates": [-24.145439944893454, 14.533535289699861]}}, {"type": "Feature", "properties": {"norad_id": 40376, "name": "SMAP", "group": "resource", "lat": 53.42148787028125, "lon": 172.63374566849816, "alt_km": 676.5868146705061, "timestamp": "2025-12-02T15:49:06.840061+00:00", "meta": {"OBJECT_NAME": "SMAP", "OBJECT_ID": "2015-003A", "EPOCH": "2025-12-02T03:45:31.694976", "MEAN_MOTION": 14.63353768, "ECCENTRICITY": 0.00013379, "INCLINATION": 98.1292, "RA_OF_ASC_NODE": 341.0331, "ARG_OF_PERICENTER": 90.148, "MEAN_ANOMALY": 269.9875, "EPHEMERIS_TYPE": 0, "CLASSIFICATION_TYPE": "U", "NORAD_CAT_ID": 40376, "ELEMENT_SET_NO": 999, "REV_AT_EPOCH": 57880, "BSTAR": 0.00014155159, "MEAN_MOTION_DOT": 6.84e-06, "MEAN_MOTION_DDOT": 0}, "tle": {"line1": "1 40376U 15003A   25336.15661684  .00000684  00000+0  14155-3 0  9991", "line2": "2 40376  98.1292 341.0331 0001337  90.1480 269.9875 14.63353768578804"}}, "geometry": {"type": "Point", "coordinates": [172.63374566849816, 53.42148787028125]}}, {"type": "Feature", "properties": {"norad_id": 40536, "name": "KOMPSAT-3A", "group": "resource", "lat": 32.89474125644133, "lon": 135.45952458191672, "alt_km": 431.7743992370397, "timestamp": "2025-12-02T15:49:06.840071+00:00", "meta": {"OBJECT_NAME": "KOMPSAT-3A", "OBJECT_ID": "2015-014A", "EPOCH": "2025-12-02T05:50:56.323680", "MEAN_MOTION": 15.43365244, "ECCENTRICITY": 0.00036047, "INCLINATION": 97.677, "RA_OF_ASC_NODE": 310.0163, "ARG_OF_PERICENTER": 149.4614, "MEAN_ANOMALY": 210.6843, "EPHEMERIS_TYPE": 0, "CLASSIFICATION_TYPE": "U", "NORAD_CAT_ID": 40536, "ELEMENT_SET_NO": 999, "REV_AT_EPOCH": 59133, "BSTAR": 0.00049246848, "MEAN_MOTION_DOT": 0.00021917, "MEAN_MOTION_DDOT": 0}, "tle": {"line1": "1 40536U 15014A   25336.24370745  .00021917  00000+0  49247-3 0  9998", "line2": "2 40536  97.6770 310.0163 0003604 149.4614 210.6843 15.43365244591334"}}, "geometry": {"type": "Point", "coordinates": [135.45952458191672, 32.89474125644133]}}]}